[{"OBJECT_NAME":"YAMAL 300K","OBJECT_ID":"2012-061B","EPOCH":"2026-04-04T01:40:35.851296","MEAN_MOTION":1.00272982,"ECCENTRICITY":3.939e-5,"INCLINATION":0.011,"RA_OF_ASC_NODE":186.0808,"ARG_OF_PERICENTER":45.6533,"MEAN_ANOMALY":168.75,"EPHEMERIS_TYPE":0,"CLASSIFICATION_TYPE":"U","NORAD_CAT_ID":38978,"ELEMENT_SET_NO":999,"REV_AT_EPOCH":4888,"BSTAR":0,"MEAN_MOTION_DOT":7.0e-7,"MEAN_MOTION_DDOT":0},{"OBJECT_NAME":"STAR ONE C3","OBJECT_ID":"2012-062A","EPOCH":"2026-04-04T05:35:05.858880","MEAN_MOTION":1.00271931,"ECCENTRICITY":0.0002534,"INCLINATION":0.0297,"RA_OF_ASC_NODE":267.8834,"ARG_OF_PERICENTER":127.3143,"MEAN_ANOMALY":166.113,"EPHEMERIS_TYPE":0,"CLASSIFICATION_TYPE":"U","NORAD_CAT_ID":38991,"ELEMENT_SET_NO":999,"REV_AT_EPOCH":4902,"BSTAR":0,"MEAN_MOTION_DOT":-2.5e-6,"MEAN_MOTION_DDOT":0},{"OBJECT_NAME":"EUTELSAT 21B","OBJECT_ID":"2012-062B","EPOCH":"2026-04-04T04:39:38.850624","MEAN_MOTION":1.00272988,"ECCENTRICITY":0.00028345,"INCLINATION":0.0709,"RA_OF_ASC_NODE":8.9559,"ARG_OF_PERICENTER":3.025,"MEAN_ANOMALY":272.0308,"EPHEMERIS_TYPE":0,"CLASSIFICATION_TYPE":"U","NORAD_CAT_ID":38992,"ELEMENT_SET_NO":999,"REV_AT_EPOCH":4908,"BSTAR":0,"MEAN_MOTION_DOT":1.29e-6,"MEAN_MOTION_DDOT":0},{"OBJECT_NAME":"MERIDIAN 6","OBJECT_ID":"2012-063A","EPOCH":"2026-04-03T20:11:46.749984","MEAN_MOTION":2.0057662,"ECCENTRICITY":0.7331257,"INCLINATION":64.1961,"RA_OF_ASC_NODE":5.9758,"ARG_OF_PERICENTER":228.8191,"MEAN_ANOMALY":40.1262,"EPHEMERIS_TYPE":0,"CLASSIFICATION_TYPE":"U","NORAD_CAT_ID":38995,"ELEMENT_SET_NO":999,"REV_AT_EPOCH":9801,"BSTAR":0,"MEAN_MOTION_DOT":4.14e-6,"MEAN_MOTION_DDOT":0},{"OBJECT_NAME":"FREGAT R/B","OBJECT_ID":"2012-063B","EPOCH":"2026-04-01T03:09:05.213376","MEAN_MOTION":2.00175988,"ECCENTRICITY":0.73159591,"INCLINATION":64.5126,"RA_OF_ASC_NODE":8.0001,"ARG_OF_PERICENTER":230.5631,"MEAN_ANOMALY":38.4148,"EPHEMERIS_TYPE":0,"CLASSIFICATION_TYPE":"U","NORAD_CAT_ID":38996,"ELEMENT_SET_NO":999,"REV_AT_EPOCH":9777,"BSTAR":0,"MEAN_MOTION_DOT":-1.386e-5,"MEAN_MOTION_DDOT":0},{"OBJECT_NAME":"ECHOSTAR 16","OBJECT_ID":"2012-065A","EPOCH":"2026-04-04T05:38:57.988032","MEAN_MOTION":1.00268072,"ECCENTRICITY":0.0002152,"INCLINATION":0.0134,"RA_OF_ASC_NODE":190.8908,"ARG_OF_PERICENTER":189.3236,"MEAN_ANOMALY":195.5849,"EPHEMERIS_TYPE":0,"CLASSIFICATION_TYPE":"U","NORAD_CAT_ID":39008,"ELEMENT_SET_NO":999,"REV_AT_EPOCH":4890,"BSTAR":0,"MEAN_MOTION_DOT":0,"MEAN_MOTION_DDOT":0},{"OBJECT_NAME":"ZHONGXING-12","OBJECT_ID":"2012-067A","EPOCH":"2026-04-04T01:13:23.460672","MEAN_MOTION":1.00270424,"ECCENTRICITY":0.00034494,"INCLINATION":0.0215,"RA_OF_ASC_NODE":176.0721,"ARG_OF_PERICENTER":195.9819,"MEAN_ANOMALY":286.1356,"EPHEMERIS_TYPE":0,"CLASSIFICATION_TYPE":"U","NORAD_CAT_ID":39017,"ELEMENT_SET_NO":999,"REV_AT_EPOCH":4876,"BSTAR":0,"MEAN_MOTION_DOT":-2.07e-6,"MEAN_MOTION_DDOT":0},{"OBJECT_NAME":"EUTELSAT 70B","OBJECT_ID":"2012-069A","EPOCH":"2026-04-04T04:33:56.724768","MEAN_MOTION":1.00272337,"ECCENTRICITY":0.00017525,"INCLINATION":0.0662,"RA_OF_ASC_NODE":353.2769,"ARG_OF_PERICENTER":24.8335,"MEAN_ANOMALY":313.3915,"EPHEMERIS_TYPE":0,"CLASSIFICATION_TYPE":"U","NORAD_CAT_ID":39020,"ELEMENT_SET_NO":999,"REV_AT_EPOCH":4876,"BSTAR":0,"MEAN_MOTION_DOT":-4.4e-7,"MEAN_MOTION_DDOT":0},{"OBJECT_NAME":"YAMAL 402","OBJECT_ID":"2012-070A","EPOCH":"2026-04-03T11:22:40.689120","MEAN_MOTION":1.00273931,"ECCENTRICITY":0.00040506,"INCLINATION":1.0728,"RA_OF_ASC_NODE":85.0846,"ARG_OF_PERICENTER":288.2478,"MEAN_ANOMALY":44.0437,"EPHEMERIS_TYPE":0,"CLASSIFICATION_TYPE":"U","NORAD_CAT_ID":39022,"ELEMENT_SET_NO":999,"REV_AT_EPOCH":4864,"BSTAR":0,"MEAN_MOTION_DOT":8.4e-7,"MEAN_MOTION_DDOT":0},{"OBJECT_NAME":"BREEZE-M R/B","OBJECT_ID":"2012-070B","EPOCH":"2026-04-03T21:50:06.854784","MEAN_MOTION":2.09994642,"ECCENTRICITY":0.63599129,"INCLINATION":25.747,"RA_OF_ASC_NODE":53.5264,"ARG_OF_PERICENTER":168.5883,"MEAN_ANOMALY":218.9091,"EPHEMERIS_TYPE":0,"CLASSIFICATION_TYPE":"U","NORAD_CAT_ID":39023,"ELEMENT_SET_NO":999,"REV_AT_EPOCH":10149,"BSTAR":0,"MEAN_MOTION_DOT":-1.87e-6,"MEAN_MOTION_DDOT":0},{"OBJECT_NAME":"SKYNET 5D","OBJECT_ID":"2012-075A","EPOCH":"2026-04-04T05:50:38.728320","MEAN_MOTION":1.00270127,"ECCENTRICITY":0.00039299,"INCLINATION":0.0751,"RA_OF_ASC_NODE":342.1785,"ARG_OF_PERICENTER":31.5228,"MEAN_ANOMALY":319.2874,"EPHEMERIS_TYPE":0,"CLASSIFICATION_TYPE":"U","NORAD_CAT_ID":39034,"ELEMENT_SET_NO":999,"REV_AT_EPOCH":4841,"BSTAR":0,"MEAN_MOTION_DOT":9.9e-7,"MEAN_MOTION_DDOT":0},{"OBJECT_NAME":"MEXSAT 3","OBJECT_ID":"2012-075B","EPOCH":"2026-04-04T05:11:46.086432","MEAN_MOTION":1.0026974,"ECCENTRICITY":0.00012512,"INCLINATION":0.0149,"RA_OF_ASC_NODE":146.6912,"ARG_OF_PERICENTER":235.0104,"MEAN_ANOMALY":133.9785,"EPHEMERIS_TYPE":0,"CLASSIFICATION_TYPE":"U","NORAD_CAT_ID":39035,"ELEMENT_SET_NO":999,"REV_AT_EPOCH":631,"BSTAR":0,"MEAN_MOTION_DOT":-2.6e-7,"MEAN_MOTION_DDOT":0},{"OBJECT_NAME":"TDRS 11","OBJECT_ID":"2013-004A","EPOCH":"2026-04-04T05:06:46.077120","MEAN_MOTION":1.00273267,"ECCENTRICITY":0.00044769,"INCLINATION":3.4128,"RA_OF_ASC_NODE":29.9365,"ARG_OF_PERICENTER":356.8492,"MEAN_ANOMALY":68.0077,"EPHEMERIS_TYPE":0,"CLASSIFICATION_TYPE":"U","NORAD_CAT_ID":39070,"ELEMENT_SET_NO":999,"REV_AT_EPOCH":4595,"BSTAR":0,"MEAN_MOTION_DOT":8.0e-7,"MEAN_MOTION_DDOT":0},{"OBJECT_NAME":"AMAZONAS 3","OBJECT_ID":"2013-006A","EPOCH":"2026-04-04T05:39:05.476320","MEAN_MOTION":1.00273714,"ECCENTRICITY":0.00018698,"INCLINATION":0.0261,"RA_OF_ASC_NODE":222.255,"ARG_OF_PERICENTER":137.5707,"MEAN_ANOMALY":216.4997,"EPHEMERIS_TYPE":0,"CLASSIFICATION_TYPE":"U","NORAD_CAT_ID":39078,"ELEMENT_SET_NO":999,"REV_AT_EPOCH":4417,"BSTAR":0,"MEAN_MOTION_DOT":-2.83e-6,"MEAN_MOTION_DDOT":0},{"OBJECT_NAME":"AZERSPACE 1","OBJECT_ID":"2013-006B","EPOCH":"2026-04-04T04:26:57.395328","MEAN_MOTION":1.00274592,"ECCENTRICITY":0.00019003,"INCLINATION":0.0145,"RA_OF_ASC_NODE":202.8087,"ARG_OF_PERICENTER":219.7163,"MEAN_ANOMALY":242.7403,"EPHEMERIS_TYPE":0,"CLASSIFICATION_TYPE":"U","NORAD_CAT_ID":39079,"ELEMENT_SET_NO":999,"REV_AT_EPOCH":4806,"BSTAR":0,"MEAN_MOTION_DOT":0,"MEAN_MOTION_DDOT":0},{"OBJECT_NAME":"SBIRS GEO-2 (USA 241)","OBJECT_ID":"2013-011A","EPOCH":"2026-04-04T05:27:38.799360","MEAN_MOTION":1.00271532,"ECCENTRICITY":0.00022482,"INCLINATION":4.3297,"RA_OF_ASC_NODE":52.4167,"ARG_OF_PERICENTER":318.5865,"MEAN_ANOMALY":213.6525,"EPHEMERIS_TYPE":0,"CLASSIFICATION_TYPE":"U","NORAD_CAT_ID":39120,"ELEMENT_SET_NO":999,"REV_AT_EPOCH":4779,"BSTAR":0,"MEAN_MOTION_DOT":-2.85e-6,"MEAN_MOTION_DDOT":0},{"OBJECT_NAME":"EUTELSAT 117 WEST A","OBJECT_ID":"2013-012A","EPOCH":"2026-04-04T05:23:07.008288","MEAN_MOTION":1.00271848,"ECCENTRICITY":0.00029711,"INCLINATION":0.05,"RA_OF_ASC_NODE":55.9155,"ARG_OF_PERICENTER":319.1205,"MEAN_ANOMALY":141.4757,"EPHEMERIS_TYPE":0,"CLASSIFICATION_TYPE":"U","NORAD_CAT_ID":39122,"ELEMENT_SET_NO":999,"REV_AT_EPOCH":4769,"BSTAR":0,"MEAN_MOTION_DOT":-1.3e-7,"MEAN_MOTION_DDOT":0}]
