YAMAL 300K              
1 38978U 12061B   26094.06985939  .00000070  00000+0  00000+0 0  9990
2 38978   0.0110 186.0808 0000393  45.6533 168.7500  1.00272982 48887
STAR ONE C3             
1 38991U 12062A   26094.23270670 -.00000250  00000+0  00000+0 0  9995
2 38991   0.0297 267.8834 0002534 127.3143 166.1130  1.00271931 49020
EUTELSAT 21B            
1 38992U 12062B   26094.19419966  .00000129  00000+0  00000+0 0  9998
2 38992   0.0709   8.9559 0002834   3.0250 272.0308  1.00272988 49082
MERIDIAN 6              
1 38995U 12063A   26093.84151331  .00000414  00000+0  00000+0 0  9999
2 38995  64.1961   5.9758 7331257 228.8191  40.1262  2.00576620 98017
FREGAT R/B              
1 38996U 12063B   26091.13131034 -.00001386  00000+0  00000+0 0  9998
2 38996  64.5126   8.0001 7315959 230.5631  38.4148  2.00175988 97777
ECHOSTAR 16             
1 39008U 12065A   26094.23539338  .00000000  00000+0  00000+0 0  9999
2 39008   0.0134 190.8908 0002152 189.3236 195.5849  1.00268072 48905
ZHONGXING-12            
1 39017U 12067A   26094.05096598 -.00000207  00000+0  00000+0 0  9997
2 39017   0.0215 176.0721 0003449 195.9819 286.1356  1.00270424 48762
EUTELSAT 70B            
1 39020U 12069A   26094.19023987 -.00000044  00000+0  00000+0 0  9999
2 39020   0.0662 353.2769 0001752  24.8335 313.3915  1.00272337 48760
YAMAL 402               
1 39022U 12070A   26093.47408205  .00000084  00000+0  00000+0 0  9996
2 39022   1.0728  85.0846 0004050 288.2478  44.0437  1.00273931 48645
BREEZE-M R/B            
1 39023U 12070B   26093.90980156 -.00000187  00000+0  00000+0 0  9990
2 39023  25.7470  53.5264 6359912 168.5883 218.9091  2.09994642101493
SKYNET 5D               
1 39034U 12075A   26094.24350380  .00000099  00000+0  00000+0 0  9996
2 39034   0.0751 342.1785 0003929  31.5228 319.2874  1.00270127 48419
MEXSAT 3                
1 39035U 12075B   26094.21650563 -.00000026  00000+0  00000+0 0  9991
2 39035   0.0149 146.6912 0001251 235.0104 133.9785  1.00269740  6314
TDRS 11                 
1 39070U 13004A   26094.21303330  .00000080  00000+0  00000+0 0  9999
2 39070   3.4128  29.9365 0004476 356.8492  68.0077  1.00273267 45950
AMAZONAS 3              
1 39078U 13006A   26094.23548005 -.00000283  00000+0  00000+0 0  9997
2 39078   0.0261 222.2550 0001869 137.5707 216.4997  1.00273714 44179
AZERSPACE 1             
1 39079U 13006B   26094.18538652  .00000000  00000+0  00000+0 0  9995
2 39079   0.0145 202.8087 0001900 219.7163 242.7403  1.00274592 48066
SBIRS GEO-2 (USA 241)   
1 39120U 13011A   26094.22753240 -.00000285  00000+0  00000+0 0  9991
2 39120   4.3297  52.4167 0002248 318.5865 213.6525  1.00271532 47791
EUTELSAT 117 WEST A     
1 39122U 13012A   26094.22438667 -.00000013  00000+0  00000+0 0  9996
2 39122   0.0500  55.9155 0002971 319.1205 141.4757  1.00271848 47690
